KUIPER-00053            
1 64513U 25134P   25251.45152204  .00038852  00000+0  10357-2 0  9995
2 64513  51.8793 319.0518 0003625  12.4157 347.6919 15.37774967 13084
KUIPER-00054            
1 64514U 25134Q   25251.45877431  .00039795  00000+0  10570-2 0  9996
2 64514  51.8780 319.0929 0005300  20.2471 339.8726 15.37870300 13082
KUIPER-00055            
1 64515U 25134R   25251.49283735  .00036481  00000+0  95481-3 0  9993
2 64515  51.8781 318.5868 0002315   9.9945 350.1087 15.38373300 13099
KUIPER-00056            
1 64516U 25134S   25251.58337963  .00062284  00000+0  17768-2 0  9998
2 64516  51.8753 318.6736 0006407  22.9162 217.3675 15.35440448  1309
KUIPER-00057            
1 64517U 25134T   25251.58337963  .00039835  00000+0  19694-2 0  9995
2 64517  51.8789 320.6700 0011976  24.3442 291.0833 15.17394173  5118
KUIPER-00058            
1 64518U 25134U   25251.58337963  .00047276  00000+0  15763-2 0  9997
2 64518  51.8759 319.0573 0007609  33.4790  22.8207 15.30593643  5541
KUIPER-00059            
1 64519U 25134V   25251.49610658  .00032324  00000+0  84682-3 0  9998
2 64519  51.8779 318.6026 0003407  11.3171 348.7893 15.38400139 13097
KUIPER-00060            
1 64520U 25134W   25251.43974197  .00018401  00000+0  48951-3 0  9994
2 64520  51.8785 318.9760 0003909   4.4060 355.6961 15.38264520 13074
