<?xml version="1.0" encoding="UTF-8"?>
<ndm xmlns:xsi="http://www.w3.org/2001/XMLSchema-instance" xsi:noNamespaceSchemaLocation="https://sanaregistry.org/r/ndmxml_unqualified/ndmxml-2.0.0-master-2.0.xsd">
<omm id="CCSDS_OMM_VERS" version="2.0">
<header><CREATION_DATE/><ORIGINATOR/></header><body><segment><metadata><OBJECT_NAME>KUIPER-00053</OBJECT_NAME><OBJECT_ID>2025-134P</OBJECT_ID><CENTER_NAME>EARTH</CENTER_NAME><REF_FRAME>TEME</REF_FRAME><TIME_SYSTEM>UTC</TIME_SYSTEM><MEAN_ELEMENT_THEORY>SGP4</MEAN_ELEMENT_THEORY></metadata><data><meanElements><EPOCH>2025-09-08T10:50:11.504256</EPOCH><MEAN_MOTION>15.37774967</MEAN_MOTION><ECCENTRICITY>.00036258</ECCENTRICITY><INCLINATION>51.8793</INCLINATION><RA_OF_ASC_NODE>319.0518</RA_OF_ASC_NODE><ARG_OF_PERICENTER>12.4157</ARG_OF_PERICENTER><MEAN_ANOMALY>347.6919</MEAN_ANOMALY></meanElements><tleParameters><EPHEMERIS_TYPE>0</EPHEMERIS_TYPE><CLASSIFICATION_TYPE>U</CLASSIFICATION_TYPE><NORAD_CAT_ID>64513</NORAD_CAT_ID><ELEMENT_SET_NO>999</ELEMENT_SET_NO><REV_AT_EPOCH>1308</REV_AT_EPOCH><BSTAR>.1035693E-2</BSTAR><MEAN_MOTION_DOT>.38852E-3</MEAN_MOTION_DOT><MEAN_MOTION_DDOT>0</MEAN_MOTION_DDOT></tleParameters></data></segment></body></omm>
<omm id="CCSDS_OMM_VERS" version="2.0">
<header><CREATION_DATE/><ORIGINATOR/></header><body><segment><metadata><OBJECT_NAME>KUIPER-00054</OBJECT_NAME><OBJECT_ID>2025-134Q</OBJECT_ID><CENTER_NAME>EARTH</CENTER_NAME><REF_FRAME>TEME</REF_FRAME><TIME_SYSTEM>UTC</TIME_SYSTEM><MEAN_ELEMENT_THEORY>SGP4</MEAN_ELEMENT_THEORY></metadata><data><meanElements><EPOCH>2025-09-08T11:00:38.100384</EPOCH><MEAN_MOTION>15.37870300</MEAN_MOTION><ECCENTRICITY>.00053005</ECCENTRICITY><INCLINATION>51.8780</INCLINATION><RA_OF_ASC_NODE>319.0929</RA_OF_ASC_NODE><ARG_OF_PERICENTER>20.2471</ARG_OF_PERICENTER><MEAN_ANOMALY>339.8726</MEAN_ANOMALY></meanElements><tleParameters><EPHEMERIS_TYPE>0</EPHEMERIS_TYPE><CLASSIFICATION_TYPE>U</CLASSIFICATION_TYPE><NORAD_CAT_ID>64514</NORAD_CAT_ID><ELEMENT_SET_NO>999</ELEMENT_SET_NO><REV_AT_EPOCH>1308</REV_AT_EPOCH><BSTAR>.10569536E-2</BSTAR><MEAN_MOTION_DOT>.39795E-3</MEAN_MOTION_DOT><MEAN_MOTION_DDOT>0</MEAN_MOTION_DDOT></tleParameters></data></segment></body></omm>
<omm id="CCSDS_OMM_VERS" version="2.0">
<header><CREATION_DATE/><ORIGINATOR/></header><body><segment><metadata><OBJECT_NAME>KUIPER-00055</OBJECT_NAME><OBJECT_ID>2025-134R</OBJECT_ID><CENTER_NAME>EARTH</CENTER_NAME><REF_FRAME>TEME</REF_FRAME><TIME_SYSTEM>UTC</TIME_SYSTEM><MEAN_ELEMENT_THEORY>SGP4</MEAN_ELEMENT_THEORY></metadata><data><meanElements><EPOCH>2025-09-08T11:49:41.147040</EPOCH><MEAN_MOTION>15.38373300</MEAN_MOTION><ECCENTRICITY>.00023153</ECCENTRICITY><INCLINATION>51.8781</INCLINATION><RA_OF_ASC_NODE>318.5868</RA_OF_ASC_NODE><ARG_OF_PERICENTER>9.9945</ARG_OF_PERICENTER><MEAN_ANOMALY>350.1087</MEAN_ANOMALY></meanElements><tleParameters><EPHEMERIS_TYPE>0</EPHEMERIS_TYPE><CLASSIFICATION_TYPE>U</CLASSIFICATION_TYPE><NORAD_CAT_ID>64515</NORAD_CAT_ID><ELEMENT_SET_NO>999</ELEMENT_SET_NO><REV_AT_EPOCH>1309</REV_AT_EPOCH><BSTAR>.95480968E-3</BSTAR><MEAN_MOTION_DOT>.36481E-3</MEAN_MOTION_DOT><MEAN_MOTION_DDOT>0</MEAN_MOTION_DDOT></tleParameters></data></segment></body></omm>
<omm id="CCSDS_OMM_VERS" version="2.0">
<header><CREATION_DATE/><ORIGINATOR/></header><body><segment><metadata><OBJECT_NAME>KUIPER-00056</OBJECT_NAME><OBJECT_ID>2025-134S</OBJECT_ID><CENTER_NAME>EARTH</CENTER_NAME><REF_FRAME>TEME</REF_FRAME><TIME_SYSTEM>UTC</TIME_SYSTEM><MEAN_ELEMENT_THEORY>SGP4</MEAN_ELEMENT_THEORY></metadata><data><meanElements><EPOCH>2025-09-08T14:00:04.000032</EPOCH><MEAN_MOTION>15.35440448</MEAN_MOTION><ECCENTRICITY>.00064079</ECCENTRICITY><INCLINATION>51.8753</INCLINATION><RA_OF_ASC_NODE>318.6736</RA_OF_ASC_NODE><ARG_OF_PERICENTER>22.9162</ARG_OF_PERICENTER><MEAN_ANOMALY>217.3675</MEAN_ANOMALY></meanElements><tleParameters><EPHEMERIS_TYPE>0</EPHEMERIS_TYPE><CLASSIFICATION_TYPE>U</CLASSIFICATION_TYPE><NORAD_CAT_ID>64516</NORAD_CAT_ID><ELEMENT_SET_NO>999</ELEMENT_SET_NO><REV_AT_EPOCH>130</REV_AT_EPOCH><BSTAR>.17768302E-2</BSTAR><MEAN_MOTION_DOT>.62284E-3</MEAN_MOTION_DOT><MEAN_MOTION_DDOT>0</MEAN_MOTION_DDOT></tleParameters></data></segment></body></omm>
<omm id="CCSDS_OMM_VERS" version="2.0">
<header><CREATION_DATE/><ORIGINATOR/></header><body><segment><metadata><OBJECT_NAME>KUIPER-00057</OBJECT_NAME><OBJECT_ID>2025-134T</OBJECT_ID><CENTER_NAME>EARTH</CENTER_NAME><REF_FRAME>TEME</REF_FRAME><TIME_SYSTEM>UTC</TIME_SYSTEM><MEAN_ELEMENT_THEORY>SGP4</MEAN_ELEMENT_THEORY></metadata><data><meanElements><EPOCH>2025-09-08T14:00:04.000032</EPOCH><MEAN_MOTION>15.17394173</MEAN_MOTION><ECCENTRICITY>.00119769</ECCENTRICITY><INCLINATION>51.8789</INCLINATION><RA_OF_ASC_NODE>320.6700</RA_OF_ASC_NODE><ARG_OF_PERICENTER>24.3442</ARG_OF_PERICENTER><MEAN_ANOMALY>291.0833</MEAN_ANOMALY></meanElements><tleParameters><EPHEMERIS_TYPE>0</EPHEMERIS_TYPE><CLASSIFICATION_TYPE>U</CLASSIFICATION_TYPE><NORAD_CAT_ID>64517</NORAD_CAT_ID><ELEMENT_SET_NO>999</ELEMENT_SET_NO><REV_AT_EPOCH>511</REV_AT_EPOCH><BSTAR>.196937E-2</BSTAR><MEAN_MOTION_DOT>.39835E-3</MEAN_MOTION_DOT><MEAN_MOTION_DDOT>0</MEAN_MOTION_DDOT></tleParameters></data></segment></body></omm>
<omm id="CCSDS_OMM_VERS" version="2.0">
<header><CREATION_DATE/><ORIGINATOR/></header><body><segment><metadata><OBJECT_NAME>KUIPER-00058</OBJECT_NAME><OBJECT_ID>2025-134U</OBJECT_ID><CENTER_NAME>EARTH</CENTER_NAME><REF_FRAME>TEME</REF_FRAME><TIME_SYSTEM>UTC</TIME_SYSTEM><MEAN_ELEMENT_THEORY>SGP4</MEAN_ELEMENT_THEORY></metadata><data><meanElements><EPOCH>2025-09-08T14:00:04.000032</EPOCH><MEAN_MOTION>15.30593643</MEAN_MOTION><ECCENTRICITY>.0007609</ECCENTRICITY><INCLINATION>51.8759</INCLINATION><RA_OF_ASC_NODE>319.0573</RA_OF_ASC_NODE><ARG_OF_PERICENTER>33.4790</ARG_OF_PERICENTER><MEAN_ANOMALY>22.8207</MEAN_ANOMALY></meanElements><tleParameters><EPHEMERIS_TYPE>0</EPHEMERIS_TYPE><CLASSIFICATION_TYPE>U</CLASSIFICATION_TYPE><NORAD_CAT_ID>64518</NORAD_CAT_ID><ELEMENT_SET_NO>999</ELEMENT_SET_NO><REV_AT_EPOCH>554</REV_AT_EPOCH><BSTAR>.15763401E-2</BSTAR><MEAN_MOTION_DOT>.47276E-3</MEAN_MOTION_DOT><MEAN_MOTION_DDOT>0</MEAN_MOTION_DDOT></tleParameters></data></segment></body></omm>
<omm id="CCSDS_OMM_VERS" version="2.0">
<header><CREATION_DATE/><ORIGINATOR/></header><body><segment><metadata><OBJECT_NAME>KUIPER-00059</OBJECT_NAME><OBJECT_ID>2025-134V</OBJECT_ID><CENTER_NAME>EARTH</CENTER_NAME><REF_FRAME>TEME</REF_FRAME><TIME_SYSTEM>UTC</TIME_SYSTEM><MEAN_ELEMENT_THEORY>SGP4</MEAN_ELEMENT_THEORY></metadata><data><meanElements><EPOCH>2025-09-08T11:54:23.608512</EPOCH><MEAN_MOTION>15.38400139</MEAN_MOTION><ECCENTRICITY>.00034072</ECCENTRICITY><INCLINATION>51.8779</INCLINATION><RA_OF_ASC_NODE>318.6026</RA_OF_ASC_NODE><ARG_OF_PERICENTER>11.3171</ARG_OF_PERICENTER><MEAN_ANOMALY>348.7893</MEAN_ANOMALY></meanElements><tleParameters><EPHEMERIS_TYPE>0</EPHEMERIS_TYPE><CLASSIFICATION_TYPE>U</CLASSIFICATION_TYPE><NORAD_CAT_ID>64519</NORAD_CAT_ID><ELEMENT_SET_NO>999</ELEMENT_SET_NO><REV_AT_EPOCH>1309</REV_AT_EPOCH><BSTAR>.84682131E-3</BSTAR><MEAN_MOTION_DOT>.32324E-3</MEAN_MOTION_DOT><MEAN_MOTION_DDOT>0</MEAN_MOTION_DDOT></tleParameters></data></segment></body></omm>
<omm id="CCSDS_OMM_VERS" version="2.0">
<header><CREATION_DATE/><ORIGINATOR/></header><body><segment><metadata><OBJECT_NAME>KUIPER-00060</OBJECT_NAME><OBJECT_ID>2025-134W</OBJECT_ID><CENTER_NAME>EARTH</CENTER_NAME><REF_FRAME>TEME</REF_FRAME><TIME_SYSTEM>UTC</TIME_SYSTEM><MEAN_ELEMENT_THEORY>SGP4</MEAN_ELEMENT_THEORY></metadata><data><meanElements><EPOCH>2025-09-08T10:33:13.706208</EPOCH><MEAN_MOTION>15.38264520</MEAN_MOTION><ECCENTRICITY>.00039091</ECCENTRICITY><INCLINATION>51.8785</INCLINATION><RA_OF_ASC_NODE>318.9760</RA_OF_ASC_NODE><ARG_OF_PERICENTER>4.4060</ARG_OF_PERICENTER><MEAN_ANOMALY>355.6961</MEAN_ANOMALY></meanElements><tleParameters><EPHEMERIS_TYPE>0</EPHEMERIS_TYPE><CLASSIFICATION_TYPE>U</CLASSIFICATION_TYPE><NORAD_CAT_ID>64520</NORAD_CAT_ID><ELEMENT_SET_NO>999</ELEMENT_SET_NO><REV_AT_EPOCH>1307</REV_AT_EPOCH><BSTAR>.48951198E-3</BSTAR><MEAN_MOTION_DOT>.18401E-3</MEAN_MOTION_DOT><MEAN_MOTION_DDOT>0</MEAN_MOTION_DDOT></tleParameters></data></segment></body></omm>

</ndm>
